GPS BIIR-2  (PRN 13)    
1 24876U 97035A   21293.04671697  .00000048  00000-0  00000-0 0  9990
2 24876  55.4804 165.0530 0054030  54.3554 306.2461  2.00562662177830
GPS BIIR-4  (PRN 20)    
1 26360U 00025A   21293.45181014 -.00000013  00000-0  00000-0 0  9990
2 26360  53.8695  88.7983 0054988 174.6638 205.4825  2.00563389157169
GPS BIIR-8  (PRN 16)    
1 27663U 03005A   21293.04631911 -.00000040  00000-0  00000-0 0  9999
2 27663  55.6843 282.6010 0121732  38.1064  26.4294  2.00551904137198
GPS BIIR-9  (PRN 21)    
1 27704U 03010A   21292.68599462 -.00000106  00000-0  00000-0 0  9997
2 27704  54.9219  33.0712 0243629 298.3436  83.9711  2.00569059135980
GPS BIIR-10 (PRN 22)    
1 28129U 03058A   21292.73865789 -.00000003  00000-0  00000-0 0  9991
2 28129  53.6798  91.4662 0068900 308.1035  51.2851  2.00559537130667
GPS BIIR-11 (PRN 19)    
1 28190U 04009A   21293.24814821 -.00000084  00000-0  00000-0 0  9993
2 28190  56.1304 343.5108 0088080 113.0300 258.8859  2.00565843128837
GPS BIIR-13 (PRN 02)    
1 28474U 04045A   21293.39574323 -.00000104  00000-0  00000-0 0  9997
2 28474  55.2542  33.0922 0206376 274.7436 114.0850  2.00551606124322
GPS BIIRM-1 (PRN 17)    
1 28874U 05038A   21293.21354696 -.00000081  00000-0  00000-0 0  9998
2 28874  56.2072 340.9338 0139157 271.3773  98.9557  2.00562888117729
GPS BIIRM-2 (PRN 31)    
1 29486U 06042A   21293.15496913 -.00000019  00000-0  00000-0 0  9997
2 29486  54.7490 218.8367 0102179  16.8191 226.1077  2.00568428110272
GPS BIIRM-3 (PRN 12)    
1 29601U 06052A   21292.76765720 -.00000040  00000-0  00000-0 0  9992
2 29601  55.6841 281.5415 0080546  69.8966 290.9591  2.00564825109289
GPS BIIRM-4 (PRN 15)    
1 32260U 07047A   21292.57200307  .00000054  00000-0  00000-0 0  9990
2 32260  53.2544 150.5267 0135974  59.2296 302.2032  2.00561050102684
GPS BIIRM-5 (PRN 29)    
1 32384U 07062A   21292.40843255 -.00000081  00000-0  00000-0 0  9992
2 32384  56.3190 341.6963 0017341 141.3253 231.0941  2.00576751101389
GPS BIIRM-6 (PRN 07)    
1 32711U 08012A   21292.98885506 -.00000021  00000-0  00000-0 0  9994
2 32711  54.5040 217.8333 0154703 228.6106 130.0590  2.00556680 99633
GPS BIIRM-8 (PRN 05)    
1 35752U 09043A   21293.47415627  .00000003  00000-0  00000-0 0  9994
2 35752  54.8950  95.2050 0058617  56.6060 308.3350  2.00571735 89252
GPS BIIF-1  (PRN 25)    
1 36585U 10022A   21293.54491595 -.00000040  00000-0  00000-0 0  9996
2 36585  54.9614 277.1969 0097181  54.3498 122.8597  2.00552841 83482
GPS BIIF-2  (PRN 01)    
1 37753U 11036A   21293.18483494 -.00000099  00000-0  00000-0 0  9993
2 37753  56.4874  38.0742 0108966  50.2413 308.8270  2.00564009 75152
GPS BIIF-3  (PRN 24)    
1 38833U 12053A   21293.16907888 -.00000015  00000-0  00000-0 0  9997
2 38833  53.5552 213.2007 0116444  43.2314 317.6940  2.00559085 65324
GPS BIIF-4  (PRN 27)    
1 39166U 13023A   21293.03199411 -.00000078  00000-0  00000-0 0  9995
2 39166  55.8450 337.4070 0094365  34.9304 325.7491  2.00567339 61764
GPS BIIF-5  (PRN 30)    
1 39533U 14008A   21292.03388827 -.00000034  00000-0  00000-0 0  9999
2 39533  53.6552 218.7289 0054376 205.3544 154.3794  2.00567929 55548
GPS BIIF-6  (PRN 06)    
1 39741U 14026A   21293.30841347 -.00000099  00000-0  00000-0 0  9993
2 39741  56.4538  37.5964 0024819 297.8219  61.9313  2.00573037 54428
GPS BIIF-7  (PRN 09)    
1 40105U 14045A   21292.90163162  .00000053  00000-0  00000-0 0  9996
2 40105  54.6431 156.4097 0020660 105.7782 254.5502  2.00561529 51954
GPS BIIF-8  (PRN 03)    
1 40294U 14068A   21292.77096153  .00000014  00000-0  00000-0 0  9997
2 40294  55.6399  97.4565 0036864  55.3779 304.9869  2.00554639 51084
GPS BIIF-9  (PRN 26)    
1 40534U 15013A   21292.90645800 -.00000044  00000-0  00000-0 0  9993
2 40534  53.8662 274.6568 0062248  15.1047 345.0590  2.00567152 47708
GPS BIIF-10 (PRN 08)    
1 40730U 15033A   21293.06713051 -.00000078  00000-0  00000-0 0  9992
2 40730  55.3497 336.3484 0066130   0.9266 359.1484  2.00564653 45878
GPS BIIF-11 (PRN 10)    
1 41019U 15062A   21292.12053985  .00000019  00000-0  00000-0 0  9998
2 41019  55.6310  97.3203 0072026 213.4901 146.0737  2.00563391 43697
GPS BIIF-12 (PRN 32)    
1 41328U 16007A   21292.71170030  .00000053  00000-0  00000-0 0  9995
2 41328  54.8669 157.0287 0052884 225.0717 134.5973  2.00556791 41719
GPS BIII-1  (PRN 04)    
1 43873U 18109A   21293.36507681  .00000052  00000-0  00000-0 0  9994
2 43873  55.0480 159.3710 0014877 190.7266 173.9469  2.00562175 20967
GPS BIII-2  (PRN 18)    
1 44506U 19056A   21293.50891498 -.00000099  00000-0  00000-0 0  9990
2 44506  55.5570  38.6093 0020142 178.7302 191.2191  2.00567556 15965
GPS BIII-3  (PRN 23)    
1 45854U 20041A   21293.65734316  .00000004  00000-0  00000+0 0  9998
2 45854  55.3474  95.8700 0017298 163.9871 255.2041  2.00563045  9921
GPS BIII-4  (PRN 14)    
1 46826U 20078A   21293.37196350 -.00000041  00000-0  00000-0 0  9990
2 46826  54.7348 279.8309 0011655 190.5672 352.1289  2.00566977  7396
